STARLINK-36649          
1 67837U 26033S   26077.25002315 -.02572663  00000+0 -46010-1 0  9999
2 67837  43.0003 219.8446 0000886 250.4075 340.7249 15.52680338  6042
STARLINK-36654          
1 67838U 26033T   26077.25002315  .00084555  00000+0  14369-2 0  9997
2 67838  43.0001 219.9639 0001627 251.3742 290.9331 15.50473570  6045
STARLINK-36652          
1 67839U 26033U   26077.25002315  .00070644  00000+0  12013-2 0  9996
2 67839  43.0000 220.0679 0001736 273.4965 226.9254 15.50528320  6042
STARLINK-36651          
1 67840U 26033V   26077.25002315  .00081697  00000+0  13887-2 0  9998
2 67840  43.0002 219.9539 0002470 280.8493 265.1636 15.50479837  6049
STARLINK-36656          
1 67841U 26033W   26077.25002315 -.00438971  00000+0 -78433-2 0  9990
2 67841  42.9999 219.8702 0001878 293.8669 286.1184 15.50792525  6047
STARLINK-36653          
1 67842U 26033X   26077.25002315  .00081155  00000+0  13780-2 0  9991
2 67842  43.0001 219.9264 0001730 263.4677 293.6396 15.50514655  6041
STARLINK-36589          
1 67843U 26033Y   26077.25002315 -.00452055  00000+0 -80744-2 0  9999
2 67843  43.0000 219.8470 0001919 275.9464 313.6325 15.50848333  6048
STARLINK-36598          
1 67844U 26033Z   26077.25002315  .00065107  00000+0  11079-2 0  9991
2 67844  43.0001 220.0506 0001891 301.9025 204.8215 15.50540013  6049
STARLINK-36606          
1 67845U 26033AA  26077.25002315 -.01867177  00000+0 -30958-1 0  9998
2 67845  43.0001 219.6101 0001850 259.8882  65.4727 15.54742265  6048
STARLINK-36658          
1 67846U 26033AB  26077.25002315  .00068336  00000+0  11623-2 0  9995
2 67846  42.9999 219.9978 0002266 280.9984 246.8450 15.50533194  6041
STARLINK-36618          
1 67847U 26033AC  26077.25002315 -.00660763  00000+0 -25285-2 0  9999
2 67847  42.9756 215.8695 0001671 280.2361  82.6441 15.87994043  6045
STARLINK-36660          
1 67848U 26033AD  26077.25002315  .00066529  00000+0  11317-2 0  9999
2 67848  43.0001 220.0833 0001617 254.9039 237.9431 15.50542603  6048
STARLINK-36602          
1 67849U 26033AE  26077.25002315  .00069067  00000+0  11752-2 0  9993
2 67849  42.9999 220.0340 0002100 274.5375 238.3179 15.50520181  6046
STARLINK-36840          
1 67850U 26034A   26076.63406050  .00431528  00000+0  20602-2 0  9990
2 67850  53.1589 171.5435 0001773 223.9160 136.1723 15.81106853  5192
STARLINK-36348          
1 67851U 26034B   26076.75975577  .00267546  00000+0  13162-2 0  9999
2 67851  53.1587 170.9037 0001068  87.7609 272.3536 15.80893524  5218
STARLINK-36276          
1 67852U 26034C   26076.00037456  .00277545  00000+0  13598-2 0  9996
2 67852  53.1589 174.7015 0001982  80.0427 280.0819 15.80955802  5092
